NORAD_CAT_ID,OBJECT_NAME,OBJECT_TYPE,EPOCH,MEAN_MOTION,ECCENTRICITY,INCLINATION,RA_OF_ASC_NODE,ARG_OF_PERICENTER,MEAN_ANOMALY,BSTAR,MEAN_MOTION_DOT,MEAN_MOTION_DDOT,TLE_LINE0,TLE_LINE1,TLE_LINE2,SEMIMAJOR_AXIS,PERIOD,APOGEE,PERIGEE,DECAYED
56497.0,STARLINK-5527,PAYLOAD,2024-01-17 20:24:40,14.98310802,0.0002886,69.998,275.6172,275.948,84.135,-0.00016167,-2.02e-05,0.0,0 STARLINK-5527,1 56497U 23064BB  24017.85046364 -.00002020  00000-0 -16167-3 0  9996,2 56497  69.9980 275.6172 0002886 275.9480  84.1350 14.98310802 39484,6950.252,96.108,574.123,570.111,0.0
56497.0,STARLINK-5527,PAYLOAD,2024-01-17 22:00:48,14.9830731,0.000276,69.9984,275.448,275.3458,84.7386,-0.00010696,-1.368e-05,0.0,0 STARLINK-5527,1 56497U 23064BB  24017.91722499 -.00001368  00000-0 -10696-3 0  9998,2 56497  69.9984 275.4480 0002760 275.3458  84.7386 14.98307310 39135,6950.263,96.108,574.046,570.21,0.0
56497.0,STARLINK-5527,PAYLOAD,2024-01-18 02:49:12,14.98316497,0.0002519,69.9994,274.9467,267.5232,92.5638,-7.6162e-05,-1.001e-05,0.0,0 STARLINK-5527,1 56497U 23064BB  24018.11750053 -.00001001  00000-0 -76162-4 0  9993,2 56497  69.9994 274.9467 0002519 267.5232  92.5638 14.98316497 39526,6950.235,96.108,573.85,570.349,0.0
56497.0,STARLINK-5527,PAYLOAD,2024-01-18 20:26:39,14.9833144,0.0002879,69.9984,273.0912,274.3722,85.7108,2.1712e-05,1.66e-06,0.0,0 STARLINK-5527,1 56497U 23064BB  24018.85185107  .00000166  00000-0  21712-4 0  9996,2 56497  69.9984 273.0912 0002879 274.3722  85.7108 14.98331440 39632,6950.188,96.107,574.054,570.052,0.0
56497.0,STARLINK-5527,PAYLOAD,2024-01-18 22:02:48,14.98330649,0.0002532,69.9998,272.9252,270.7597,89.3272,5.3908e-05,5.5e-06,0.0,0 STARLINK-5527,1 56497U 23064BB  24018.91861116  .00000550  00000-0  53908-4 0  9993,2 56497  69.9998 272.9252 0002532 270.7597  89.3272 14.98330649 39281,6950.191,96.107,573.816,570.296,0.0
56497.0,STARLINK-5527,PAYLOAD,2024-01-19 02:51:11,14.98336182,0.0002183,70.0004,272.4206,268.5575,91.5334,0.00012375,1.384e-05,0.0,0 STARLINK-5527,1 56497U 23064BB  24019.11888590  .00001384  00000-0  12375-3 0  9999,2 56497  70.0004 272.4206 0002183 268.5575  91.5334 14.98336182 39674,6950.174,96.107,573.556,570.522,0.0
56497.0,STARLINK-5527,PAYLOAD,2024-01-19 22:04:48,14.98335964,0.000259,69.9992,270.4003,272.6313,87.4549,0.00022201,2.557e-05,0.0,0 STARLINK-5527,1 56497U 23064BB  24019.92000239  .00002557  00000-0  22201-3 0  9996,2 56497  69.9992 270.4003 0002590 272.6313  87.4549 14.98335964 39431,6950.174,96.107,573.84,570.239,0.0
56497.0,STARLINK-5527,PAYLOAD,2024-01-20 02:53:12,14.98338759,0.0002114,69.9999,269.8955,269.0351,91.0566,0.00029206,3.394e-05,0.0,0 STARLINK-5527,1 56497U 23064BB  24020.12027807  .00003394  00000-0  29206-3 0  9992,2 56497  69.9999 269.8955 0002114 269.0351  91.0566 14.98338759 39828,6950.166,96.106,573.5,570.562,0.0
56497.0,STARLINK-5527,PAYLOAD,2024-01-20 18:54:32,14.9833823,0.000186,70.0007,268.2129,252.0603,108.0354,-2.2158e-06,-1.19e-06,0.0,0 STARLINK-5527,1 56497U 23064BB  24020.78788163 -.00000119  00000-0 -22158-5 0  9998,2 56497  70.0007 268.2129 0001860 252.0603 108.0354 14.98338230 39925,6950.167,96.106,573.325,570.74,0.0
56497.0,STARLINK-5527,PAYLOAD,2024-01-20 22:06:49,14.98334801,0.0002172,70.0006,267.8762,254.6897,105.4022,4.0637e-06,-4.4e-07,0.0,0 STARLINK-5527,1 56497U 23064BB  24020.92140227 -.00000044  00000-0  40637-5 0  9995,2 56497  70.0006 267.8762 0002172 254.6897 105.4022 14.98334801 39587,6950.178,96.107,573.553,570.533,0.0
56497.0,STARLINK-5527,PAYLOAD,2024-01-21 02:55:13,14.98330979,0.0002083,70.0002,267.3708,262.222,97.8702,-5.4397e-05,-7.42e-06,0.0,0 STARLINK-5527,1 56497U 23064BB  24021.12168654 -.00000742  00000-0 -54397-4 0  9995,2 56497  70.0002 267.3708 0002083 262.2220  97.8702 14.98330979 39978,6950.19,96.107,573.503,570.607,0.0
56497.0,STARLINK-5527,PAYLOAD,2024-01-21 18:56:33,14.98339739,0.0002259,70.0,265.6886,251.7008,108.3905,-9.0779e-05,-1.176e-05,0.0,0 STARLINK-5527,1 56497U 23064BB  24021.78927767 -.00001176  00000-0 -90779-4 0  9991,2 56497  70.0000 265.6886 0002259 251.7008 108.3905 14.98339739 40075,6950.163,96.106,573.598,570.458,0.0
56497.0,STARLINK-5527,PAYLOAD,2024-01-21 22:08:49,14.98338642,0.0002285,70.0,265.3519,251.2052,108.8859,-9.9988e-05,-1.286e-05,0.0,0 STARLINK-5527,1 56497U 23064BB  24021.92279767 -.00001286  00000-0 -99988-4 0  9990,2 56497  70.0000 265.3519 0002285 251.2052 108.8859 14.98338642 39734,6950.166,96.106,573.619,570.443,0.0
56497.0,STARLINK-5527,PAYLOAD,2024-01-22 01:21:05,14.98337107,0.0002302,70.0,265.0153,253.0284,107.0623,-0.00011455,-1.46e-05,0.0,0 STARLINK-5527,1 56497U 23064BB  24022.05631850 -.00001460  00000-0 -11455-3 0  9996,2 56497  70.0000 265.0153 0002302 253.0284 107.0623 14.98337107 39759,6950.171,96.107,573.636,570.436,0.0
56497.0,STARLINK-5527,PAYLOAD,2024-01-22 18:58:33,14.98349453,0.0003192,69.9983,263.1578,278.9674,81.1123,3.9669e-05,3.81e-06,0.0,0 STARLINK-5527,1 56497U 23064BB  24022.79066119  .00000381  00000-0  39669-4 0  9994,2 56497  69.9983 263.1578 0003192 278.9674  81.1123 14.98349453 40221,6950.133,96.106,574.216,569.779,0.0
56497.0,STARLINK-5527,PAYLOAD,2024-01-22 22:10:48,14.98348351,0.0002371,69.9998,262.8249,263.0783,97.0106,0.00014929,1.69e-05,0.0,0 STARLINK-5527,1 56497U 23064BB  24022.92417692  .00001690  00000-0  14929-3 0  9990,2 56497  69.9998 262.8249 0002371 263.0783  97.0106 14.98348351 39885,6950.136,96.106,573.649,570.353,0.0
56497.0,STARLINK-5527,PAYLOAD,2024-01-23 01:23:03,14.98360805,0.0002625,69.9994,262.4895,261.4205,98.6657,0.00034336,4.009e-05,0.0,0 STARLINK-5527,1 56497U 23064BB  24023.05768156  .00004009  00000-0  34336-3 0  9990,2 56497  69.9994 262.4895 0002625 261.4205  98.6657 14.98360805 40267,6950.098,96.105,573.787,570.138,0.0
56497.0,STARLINK-5527,PAYLOAD,2024-01-23 22:12:50,14.98326213,0.0003025,69.9992,260.3012,261.0442,99.0375,-4.7727e-05,-6.62e-06,0.0,0 STARLINK-5527,1 56497U 23064BB  24023.92558919 -.00000662  00000-0 -47727-4 0  9992,2 56497  69.9992 260.3012 0003025 261.0442  99.0375 14.98326213 40039,6950.205,96.107,574.172,569.967,0.0
56497.0,STARLINK-5527,PAYLOAD,2024-01-24 01:25:07,14.98328923,0.000353,69.9978,259.9634,272.2968,87.7787,-9.6829e-05,-1.248e-05,0.0,0 STARLINK-5527,1 56497U 23064BB  24024.05910892 -.00001248  00000-0 -96829-4 0  9997,2 56497  69.9978 259.9634 0003530 272.2968  87.7787 14.98328923 40418,6950.196,96.107,574.515,569.608,0.0
56497.0,STARLINK-5527,PAYLOAD,2024-01-24 22:14:52,14.98333257,0.0003095,69.9991,257.776,261.0617,99.0192,-0.00034101,-4.16e-05,0.0,0 STARLINK-5527,1 56497U 23064BB  24024.92699461 -.00004160  00000-0 -34101-3 0  9999,2 56497  69.9991 257.7760 0003095 261.0617  99.0192 14.98333257 40188,6950.183,96.107,574.199,569.897,0.0
56497.0,STARLINK-5527,PAYLOAD,2024-01-25 01:27:08,14.98334669,0.000303,69.9994,257.4403,258.7086,101.3732,-0.00030829,-3.77e-05,0.0,0 STARLINK-5527,1 56497U 23064BB  24025.06051256 -.00003770  00000-0 -30829-3 0  9998,2 56497  69.9994 257.4403 0003030 258.7086 101.3732 14.98334669 40561,6950.178,96.107,574.149,569.938,0.0
56497.0,STARLINK-5527,PAYLOAD,2024-01-25 22:16:53,14.98321588,0.000319,69.9993,255.2517,260.6272,99.4527,0.00011082,1.229e-05,0.0,0 STARLINK-5527,1 56497U 23064BB  24025.92839257  .00001229  00000-0  11082-3 0  9993,2 56497  69.9993 255.2517 0003190 260.6272  99.4527 14.98321588 40338,6950.219,96.108,574.301,569.867,0.0
56497.0,STARLINK-5527,PAYLOAD,2024-01-26 01:29:09,14.98323707,0.0003169,69.9994,254.9156,259.1714,100.9089,0.00013051,1.464e-05,0.0,0 STARLINK-5527,1 56497U 23064BB  24026.06191133  .00001464  00000-0  13051-3 0  9992,2 56497  69.9994 254.9156 0003169 259.1714 100.9089 14.98323707 40712,6950.212,96.107,574.28,569.875,0.0
56497.0,STARLINK-5527,PAYLOAD,2024-01-26 23:55:01,14.98331658,0.0003132,69.9994,252.5579,263.6126,96.4677,0.00017964,2.051e-05,0.0,0 STARLINK-5527,1 56497U 23064BB  24026.99654804  .00002051  00000-0  17964-3 0  9993,2 56497  69.9994 252.5579 0003132 263.6126  96.4677 14.98331658 40853,6950.188,96.107,574.23,569.876,0.0
56497.0,STARLINK-5527,PAYLOAD,2024-01-27 14:20:14,14.98329747,0.0002918,69.9997,251.0431,261.5182,98.5647,3.3482e-05,3.07e-06,0.0,0 STARLINK-5527,1 56497U 23064BB  24027.59739361  .00000307  00000-0  33482-4 0  9998,2 56497  69.9997 251.0431 0002918 261.5182  98.5647 14.98329747 40583,6950.194,96.107,574.087,570.031,0.0
56497.0,STARLINK-5527,PAYLOAD,2024-01-27 19:08:39,14.98329417,0.0002917,69.9997,250.5378,262.6051,97.4776,2.8066e-05,2.42e-06,0.0,0 STARLINK-5527,1 56497U 23064BB  24027.79767396  .00000242  00000-0  28066-4 0  9999,2 56497  69.9997 250.5378 0002917 262.6051  97.4776 14.98329417 40971,6950.195,96.107,574.087,570.032,0.0
56497.0,STARLINK-5527,PAYLOAD,2024-01-27 22:20:55,14.98327901,0.0002946,69.9998,250.2015,263.879,96.2033,5.4021e-06,-2.9e-07,0.0,0 STARLINK-5527,1 56497U 23064BB  24027.93119543 -.00000029  00000-0  54021-5 0  9995,2 56497  69.9998 250.2015 0002946 263.8790  96.2033 14.98327901 40634,6950.199,96.107,574.112,570.017,0.0
56497.0,STARLINK-5527,PAYLOAD,2024-01-27 23:57:03,14.9832834,0.0002943,69.9998,250.0332,264.0468,96.0356,9.4923e-06,2e-07,0.0,0 STARLINK-5527,1 56497U 23064BB  24027.99795507  .00000020  00000-0  94923-5 0  9996,2 56497  69.9998 250.0332 0002943 264.0468  96.0356 14.98328340 40641,6950.198,96.107,574.108,570.018,0.0
56497.0,STARLINK-5527,PAYLOAD,2024-01-28 19:10:39,14.98333395,0.0002864,70.0,248.0133,262.104,97.9794,-2.099e-05,-3.43e-06,0.0,0 STARLINK-5527,1 56497U 23064BB  24028.79907169 -.00000343  00000-0 -20990-4 0  9996,2 56497  70.0000 248.0133 0002864 262.1040  97.9794 14.98333395 41127,6950.182,96.107,574.038,570.057,0.0
56497.0,STARLINK-5527,PAYLOAD,2024-01-28 22:22:56,14.98332185,0.0002897,69.9999,247.6765,262.489,97.594,-3.4858e-05,-5.09e-06,0.0,0 STARLINK-5527,1 56497U 23064BB  24028.93259260 -.00000509  00000-0 -34858-4 0  9996,2 56497  69.9999 247.6765 0002897 262.4890  97.5940 14.98332185 40785,6950.186,96.107,574.065,570.038,0.0
